STARLINK-1648           
1 46533U 20070B   26085.42547759  .01293367  11541-2  11438-2 0  9998
2 46533  53.0366  39.4866 0001533 129.3863 230.7307 16.12594751302891
STARLINK-1814           
1 46712U 20073AU  26084.92323558  .04964988  12122-4  10448-2 0  9998
2 46712  53.0226 100.1416 0002948  26.6133 333.5060 16.30164514300539
STARLINK-1820           
1 46717U 20073AZ  26085.48929659  .00598683  17306-3  10657-2 0  9990
2 46717  53.0343  76.3737 0005175  57.1193 303.0334 16.01245008300929
STARLINK-1843           
1 47133U 20088M   26085.58334490  .00545325  14121-3  10469-2 0  9991
2 47133  53.0381 156.8327 0010615  12.0163  98.8648 15.99851234  5991
STARLINK-1971           
1 47572U 21009AA  26085.66537642  .00825114  36021-3  11255-2 0  9999
2 47572  53.0315 234.8243 0009152 322.8252  37.2145 16.05641109284347
STARLINK-2116           
1 47724U 21017C   26085.50002314  .00419105  80360-4  11123-2 0  9992
2 47724  53.0364 358.8223 0002451 237.0293 273.4323 15.94112245  5986
STARLINK-3149           
1 49423U 21104R   26085.59551940  .00949415  56232-3  81023-3 0  9999
2 49423  53.2090 132.7812 0002496  11.3216 348.7877 16.12972530241469
TRANSPORTER-3 OBJECT CN 
1 51068U 22002CN  26085.15058551  .01623687  20931-2  15386-2 0  9992
2 51068  97.2886 170.5491 0009197 250.6247 109.4044 16.12409493234326
STARLINK-3603           
1 51816U 22017BA  26085.50002314  .00470527  95949-4  14497-2 0  9991
2 51816  53.2135 225.4544 0001670  99.2600  81.3674 15.91259891  5990
JILIN-1 GAOFEN 03D16    
1 51834U 22019L   26085.54290600  .00615312  17398-3  11436-2 0  9998
2 51834  97.3627 181.6192 0003896 246.6149 113.4720 16.01094634227253
NUSAT-31 (RUBY PAYNE-S) 
1 52752U 22057W   26085.49065419  .01043809  67467-3  10402-2 0  9993
2 52752  97.6376 257.3321 0007492 272.8077  87.2349 16.11304654214651
STARLINK-4038           
1 53150U 22083U   26085.40051574  .01258905  11740-2  87324-3 0  9998
2 53150  53.1949  33.6658 0002430  70.2528 289.8772 16.16063647204651
STARLINK-4404           
1 53195U 22084G   26085.75573703  .00257926  34579-4  27004-3 0  9996
2 53195  97.6080 174.0227 0004327 278.8098  81.2695 16.10455463204200
STARLINK-4407           
1 53196U 22084H   26085.71281490  .01087874  76703-3  98952-3 0  9990
2 53196  97.6029 174.5212 0006606 283.0516  77.0031 16.12712154204211
STARLINK-4057           
1 53269U 22086AD  26085.83933659  .03705385  12070-4  79183-3 0  9996
2 53269  53.2050  84.6289 0002132 258.6337 101.4468 16.30017364204103
STARLINK-4361           
1 53493U 22099AE  26085.64832176  .00765592  34358-3  68447-3 0  9996
2 53493  97.6461 227.9839 0001442 332.7515  27.3694 16.12905489199786
