[{"OBJECT_NAME":"STARLINK-1648","OBJECT_ID":"2020-070B","EPOCH":"2026-03-26T10:12:41.263776","MEAN_MOTION":16.12594751,"ECCENTRICITY":0.0001533,"INCLINATION":53.0366,"RA_OF_ASC_NODE":39.4866,"ARG_OF_PERICENTER":129.3863,"MEAN_ANOMALY":230.7307,"EPHEMERIS_TYPE":0,"CLASSIFICATION_TYPE":"U","NORAD_CAT_ID":46533,"ELEMENT_SET_NO":999,"REV_AT_EPOCH":30289,"BSTAR":0.0011438,"MEAN_MOTION_DOT":0.01293367,"MEAN_MOTION_DDOT":0.0011541},{"OBJECT_NAME":"STARLINK-1814","OBJECT_ID":"2020-073AU","EPOCH":"2026-03-25T22:09:27.554112","MEAN_MOTION":16.30164514,"ECCENTRICITY":0.00029486,"INCLINATION":53.0226,"RA_OF_ASC_NODE":100.1416,"ARG_OF_PERICENTER":26.6133,"MEAN_ANOMALY":333.506,"EPHEMERIS_TYPE":0,"CLASSIFICATION_TYPE":"U","NORAD_CAT_ID":46712,"ELEMENT_SET_NO":999,"REV_AT_EPOCH":30053,"BSTAR":0.0010447666,"MEAN_MOTION_DOT":0.04964988,"MEAN_MOTION_DDOT":1.2122027e-5},{"OBJECT_NAME":"STARLINK-1820","OBJECT_ID":"2020-073AZ","EPOCH":"2026-03-26T11:44:35.225376","MEAN_MOTION":16.01245008,"ECCENTRICITY":0.0005175,"INCLINATION":53.0343,"RA_OF_ASC_NODE":76.3737,"ARG_OF_PERICENTER":57.1193,"MEAN_ANOMALY":303.0334,"EPHEMERIS_TYPE":0,"CLASSIFICATION_TYPE":"U","NORAD_CAT_ID":46717,"ELEMENT_SET_NO":999,"REV_AT_EPOCH":30092,"BSTAR":0.0010657,"MEAN_MOTION_DOT":0.00598683,"MEAN_MOTION_DDOT":0.00017306},{"OBJECT_NAME":"STARLINK-1843","OBJECT_ID":"2020-088M","EPOCH":"2026-03-26T14:00:00.999360","MEAN_MOTION":15.99851234,"ECCENTRICITY":0.0010615,"INCLINATION":53.0381,"RA_OF_ASC_NODE":156.8327,"ARG_OF_PERICENTER":12.0163,"MEAN_ANOMALY":98.8648,"EPHEMERIS_TYPE":0,"CLASSIFICATION_TYPE":"U","NORAD_CAT_ID":47133,"ELEMENT_SET_NO":999,"REV_AT_EPOCH":599,"BSTAR":0.0010469,"MEAN_MOTION_DOT":0.00545325,"MEAN_MOTION_DDOT":0.00014121},{"OBJECT_NAME":"STARLINK-1971","OBJECT_ID":"2021-009AA","EPOCH":"2026-03-26T15:58:08.522688","MEAN_MOTION":16.05641109,"ECCENTRICITY":0.0009152,"INCLINATION":53.0315,"RA_OF_ASC_NODE":234.8243,"ARG_OF_PERICENTER":322.8252,"MEAN_ANOMALY":37.2145,"EPHEMERIS_TYPE":0,"CLASSIFICATION_TYPE":"U","NORAD_CAT_ID":47572,"ELEMENT_SET_NO":999,"REV_AT_EPOCH":28434,"BSTAR":0.0011255,"MEAN_MOTION_DOT":0.00825114,"MEAN_MOTION_DDOT":0.00036021},{"OBJECT_NAME":"STARLINK-2116","OBJECT_ID":"2021-017C","EPOCH":"2026-03-26T12:00:01.999296","MEAN_MOTION":15.94112245,"ECCENTRICITY":0.0002451,"INCLINATION":53.0364,"RA_OF_ASC_NODE":358.8223,"ARG_OF_PERICENTER":237.0293,"MEAN_ANOMALY":273.4323,"EPHEMERIS_TYPE":0,"CLASSIFICATION_TYPE":"U","NORAD_CAT_ID":47724,"ELEMENT_SET_NO":999,"REV_AT_EPOCH":598,"BSTAR":0.0011123,"MEAN_MOTION_DOT":0.00419105,"MEAN_MOTION_DDOT":8.036e-5},{"OBJECT_NAME":"STARLINK-3149","OBJECT_ID":"2021-104R","EPOCH":"2026-03-26T14:17:32.876160","MEAN_MOTION":16.1297253,"ECCENTRICITY":0.0002496,"INCLINATION":53.209,"RA_OF_ASC_NODE":132.7812,"ARG_OF_PERICENTER":11.3216,"MEAN_ANOMALY":348.7877,"EPHEMERIS_TYPE":0,"CLASSIFICATION_TYPE":"U","NORAD_CAT_ID":49423,"ELEMENT_SET_NO":999,"REV_AT_EPOCH":24146,"BSTAR":0.00081023,"MEAN_MOTION_DOT":0.00949415,"MEAN_MOTION_DDOT":0.00056232},{"OBJECT_NAME":"TRANSPORTER-3 OBJECT CN","OBJECT_ID":"2022-002CN","EPOCH":"2026-03-26T03:36:50.588064","MEAN_MOTION":16.12409493,"ECCENTRICITY":0.0009197,"INCLINATION":97.2886,"RA_OF_ASC_NODE":170.5491,"ARG_OF_PERICENTER":250.6247,"MEAN_ANOMALY":109.4044,"EPHEMERIS_TYPE":0,"CLASSIFICATION_TYPE":"U","NORAD_CAT_ID":51068,"ELEMENT_SET_NO":999,"REV_AT_EPOCH":23432,"BSTAR":0.0015386,"MEAN_MOTION_DOT":0.01623687,"MEAN_MOTION_DDOT":0.0020931},{"OBJECT_NAME":"STARLINK-3603","OBJECT_ID":"2022-017BA","EPOCH":"2026-03-26T12:00:01.999296","MEAN_MOTION":15.91259891,"ECCENTRICITY":0.000167,"INCLINATION":53.2135,"RA_OF_ASC_NODE":225.4544,"ARG_OF_PERICENTER":99.26,"MEAN_ANOMALY":81.3674,"EPHEMERIS_TYPE":0,"CLASSIFICATION_TYPE":"U","NORAD_CAT_ID":51816,"ELEMENT_SET_NO":999,"REV_AT_EPOCH":599,"BSTAR":0.0014497,"MEAN_MOTION_DOT":0.00470527,"MEAN_MOTION_DDOT":9.5949e-5},{"OBJECT_NAME":"JILIN-1 GAOFEN 03D16","OBJECT_ID":"2022-019L","EPOCH":"2026-03-26T13:01:47.078400","MEAN_MOTION":16.01094634,"ECCENTRICITY":0.0003896,"INCLINATION":97.3627,"RA_OF_ASC_NODE":181.6192,"ARG_OF_PERICENTER":246.6149,"MEAN_ANOMALY":113.472,"EPHEMERIS_TYPE":0,"CLASSIFICATION_TYPE":"U","NORAD_CAT_ID":51834,"ELEMENT_SET_NO":999,"REV_AT_EPOCH":22725,"BSTAR":0.0011436,"MEAN_MOTION_DOT":0.00615312,"MEAN_MOTION_DDOT":0.00017398},{"OBJECT_NAME":"NUSAT-31 (RUBY PAYNE-S)","OBJECT_ID":"2022-057W","EPOCH":"2026-03-26T11:46:32.522016","MEAN_MOTION":16.11304654,"ECCENTRICITY":0.0007492,"INCLINATION":97.6376,"RA_OF_ASC_NODE":257.3321,"ARG_OF_PERICENTER":272.8077,"MEAN_ANOMALY":87.2349,"EPHEMERIS_TYPE":0,"CLASSIFICATION_TYPE":"U","NORAD_CAT_ID":52752,"ELEMENT_SET_NO":999,"REV_AT_EPOCH":21465,"BSTAR":0.0010402,"MEAN_MOTION_DOT":0.01043809,"MEAN_MOTION_DDOT":0.00067467},{"OBJECT_NAME":"STARLINK-4038","OBJECT_ID":"2022-083U","EPOCH":"2026-03-26T09:36:44.559936","MEAN_MOTION":16.16063647,"ECCENTRICITY":0.000243,"INCLINATION":53.1949,"RA_OF_ASC_NODE":33.6658,"ARG_OF_PERICENTER":70.2528,"MEAN_ANOMALY":289.8772,"EPHEMERIS_TYPE":0,"CLASSIFICATION_TYPE":"U","NORAD_CAT_ID":53150,"ELEMENT_SET_NO":999,"REV_AT_EPOCH":20465,"BSTAR":0.00087324,"MEAN_MOTION_DOT":0.01258905,"MEAN_MOTION_DDOT":0.001174},{"OBJECT_NAME":"STARLINK-4404","OBJECT_ID":"2022-084G","EPOCH":"2026-03-26T18:08:15.679392","MEAN_MOTION":16.10455463,"ECCENTRICITY":0.0004327,"INCLINATION":97.608,"RA_OF_ASC_NODE":174.0227,"ARG_OF_PERICENTER":278.8098,"MEAN_ANOMALY":81.2695,"EPHEMERIS_TYPE":0,"CLASSIFICATION_TYPE":"U","NORAD_CAT_ID":53195,"ELEMENT_SET_NO":999,"REV_AT_EPOCH":20420,"BSTAR":0.00027004,"MEAN_MOTION_DOT":0.00257926,"MEAN_MOTION_DDOT":3.4579e-5},{"OBJECT_NAME":"STARLINK-4407","OBJECT_ID":"2022-084H","EPOCH":"2026-03-26T17:06:27.207360","MEAN_MOTION":16.12712154,"ECCENTRICITY":0.0006606,"INCLINATION":97.6029,"RA_OF_ASC_NODE":174.5212,"ARG_OF_PERICENTER":283.0516,"MEAN_ANOMALY":77.0031,"EPHEMERIS_TYPE":0,"CLASSIFICATION_TYPE":"U","NORAD_CAT_ID":53196,"ELEMENT_SET_NO":999,"REV_AT_EPOCH":20421,"BSTAR":0.00098952,"MEAN_MOTION_DOT":0.01087874,"MEAN_MOTION_DDOT":0.00076703},{"OBJECT_NAME":"STARLINK-4057","OBJECT_ID":"2022-086AD","EPOCH":"2026-03-26T20:08:38.681376","MEAN_MOTION":16.30017364,"ECCENTRICITY":0.0002132,"INCLINATION":53.205,"RA_OF_ASC_NODE":84.6289,"ARG_OF_PERICENTER":258.6337,"MEAN_ANOMALY":101.4468,"EPHEMERIS_TYPE":0,"CLASSIFICATION_TYPE":"U","NORAD_CAT_ID":53269,"ELEMENT_SET_NO":999,"REV_AT_EPOCH":20410,"BSTAR":0.00079183,"MEAN_MOTION_DOT":0.03705385,"MEAN_MOTION_DDOT":1.207e-5},{"OBJECT_NAME":"STARLINK-4361","OBJECT_ID":"2022-099AE","EPOCH":"2026-03-26T15:33:35.000064","MEAN_MOTION":16.12905489,"ECCENTRICITY":0.0001442,"INCLINATION":97.6461,"RA_OF_ASC_NODE":227.9839,"ARG_OF_PERICENTER":332.7515,"MEAN_ANOMALY":27.3694,"EPHEMERIS_TYPE":0,"CLASSIFICATION_TYPE":"U","NORAD_CAT_ID":53493,"ELEMENT_SET_NO":999,"REV_AT_EPOCH":19978,"BSTAR":0.00068447,"MEAN_MOTION_DOT":0.00765592,"MEAN_MOTION_DDOT":0.00034358}]
